IRIDIUM 119             
1 42959U 17061E   25144.51607037  .00000233  00000+0  76300-4 0  9996
2 42959  86.4007 187.6665 0002278 100.0901 260.0552 14.34216447399103
IRIDIUM 107             
1 42960U 17061F   25144.39554191  .00000186  00000+0  59191-4 0  9992
2 42960  86.4008 187.7359 0002733 100.1647 259.9857 14.34218093399093
IRIDIUM 132             
1 42961U 17061G   25144.19257857  .00000084  00000+0  22945-4 0  9994
2 42961  86.4007 187.8029 0002424  95.3487 264.7985 14.34217965399062
IRIDIUM 136             
1 42962U 17061H   25144.36382828  .00000066  00000+0  16389-4 0  9996
2 42962  86.4008 187.7361 0002359  99.3823 260.7640 14.34217929399106
IRIDIUM 139             
1 42963U 17061J   25144.57947138  .00000232  00000+0  75911-4 0  9992
2 42963  86.4009 187.7018 0002577  96.2656 263.8834 14.34220256399149
IRIDIUM 125             
1 42964U 17061K   25144.35748588  .00000066  00000+0  16463-4 0  9999
2 42964  86.4011 187.8483 0002418 108.5120 251.6338 14.34217626399126
IRIDIUM 135             
1 43070U 17083A   25144.47114774  .00000034  00000+0  51496-5 0  9990
2 43070  86.3949 124.5321 0002290  81.4602 278.6853 14.34217679388436
IRIDIUM 138             
1 43071U 17083B   25144.42674885  .00000088  00000+0  24396-4 0  9997
2 43071  86.3938 124.2246 0001839  96.2667 263.8738 14.34218110388418
